ONEWEB-0564             
1 55801U 23029F   25292.83410984  .00000010  00000+0 -82196-5 0  9994
2 55801  87.9205 322.4080 0001645  83.6735 276.4585 13.20770129129426
ONEWEB-0638             
1 55802U 23029G   25292.86086784 -.00000137  00000+0 -40492-3 0  9997
2 55802  87.9023 337.6455 0001348  95.9440 264.1844 13.14503303127823
ONEWEB-0639             
1 55803U 23029H   25292.61686479  .00000079  00000+0  16548-3 0  9996
2 55803  87.9255 352.8454 0002432 126.1027 234.0331 13.19724566127178
ONEWEB-0640             
1 55804U 23029J   25292.48979945  .00000106  00000+0  25182-3 0  9990
2 55804  87.9031 337.7043 0001254 118.0858 242.0398 13.14503994127795
ONEWEB-0641             
1 55805U 23029K   25292.61212746  .00000061  00000+0  12066-3 0  9992
2 55805  87.9262 352.8220 0001973 105.4319 254.7032 13.19725071127182
ONEWEB-0642             
1 55806U 23029L   25292.91065547  .00000035  00000+0  54527-4 0  9991
2 55806  87.9251 352.7917 0002492 116.7373 243.4015 13.19723955127214
ONEWEB-0643             
1 55807U 23029M   25292.84025349 -.00000129  00000+0 -38315-3 0  9992
2 55807  87.9037 337.6189 0002519 106.9983 253.1423 13.14503164127818
ONEWEB-0644             
1 55808U 23029N   25292.90591053  .00000082  00000+0  17220-3 0  9998
2 55808  87.9252 352.8014 0002215 110.7671 249.3699 13.19723606127210
ONEWEB-0645             
1 55809U 23029P   25292.97779025  .00000062  00000+0  12176-3 0  9996
2 55809  87.9249 352.7707 0001811 116.3233 243.8086 13.19726418127226
ONEWEB-0646             
1 55810U 23029Q   25292.86957273  .00000120  00000+0  26638-3 0  9992
2 55810  87.9257 352.7924 0002121 106.1817 253.9550 13.19727810127199
ONEWEB-0648             
1 55811U 23029R   25292.88464066  .00000253  00000+0  64852-3 0  9995
2 55811  87.9021 337.5750 0002120 126.0650 234.0677 13.14506061127820
ONEWEB-0649             
1 55812U 23029S   25292.89486194  .00000096  00000+0  20841-3 0  9998
2 55812  87.9258 352.7813 0001985 113.1824 246.9518 13.19723977127233
ONEWEB-0650             
1 55813U 23029T   25292.43522785  .00000084  00000+0  17708-3 0  9991
2 55813  87.9256 352.8816 0001979 104.4105 255.7248 13.19725623127142
ONEWEB-0652             
1 55814U 23029U   25292.86563047  .00000003  00000+0 -27122-4 0  9999
2 55814  87.9026 337.5981 0001854  92.2105 267.9237 13.14502382127791
ONEWEB-0653             
1 55815U 23029V   25292.84976292 -.00000148  00000+0 -43248-3 0  9995
2 55815  87.9030 337.5914 0001651  95.3309 264.8009 13.14500271127820
ONEWEB-0654             
1 55816U 23029W   25292.84501155 -.00000163  00000+0 -47514-3 0  9995
2 55816  87.9031 337.5911 0001725  85.9154 274.2173 13.14502957127846
