[{"OBJECT_NAME":"ONEWEB-0564","OBJECT_ID":"2023-029F","EPOCH":"2025-10-19T20:01:07.090176","MEAN_MOTION":13.20770129,"ECCENTRICITY":0.00016452,"INCLINATION":87.9205,"RA_OF_ASC_NODE":322.408,"ARG_OF_PERICENTER":83.6735,"MEAN_ANOMALY":276.4585,"EPHEMERIS_TYPE":0,"CLASSIFICATION_TYPE":"U","NORAD_CAT_ID":55801,"ELEMENT_SET_NO":999,"REV_AT_EPOCH":12942,"BSTAR":-8.219569e-6,"MEAN_MOTION_DOT":1.0e-7,"MEAN_MOTION_DDOT":0},{"OBJECT_NAME":"ONEWEB-0638","OBJECT_ID":"2023-029G","EPOCH":"2025-10-19T20:39:38.981376","MEAN_MOTION":13.14503303,"ECCENTRICITY":0.00013486,"INCLINATION":87.9023,"RA_OF_ASC_NODE":337.6455,"ARG_OF_PERICENTER":95.944,"MEAN_ANOMALY":264.1844,"EPHEMERIS_TYPE":0,"CLASSIFICATION_TYPE":"U","NORAD_CAT_ID":55802,"ELEMENT_SET_NO":999,"REV_AT_EPOCH":12782,"BSTAR":-0.00040492172,"MEAN_MOTION_DOT":-1.37e-6,"MEAN_MOTION_DDOT":0},{"OBJECT_NAME":"ONEWEB-0639","OBJECT_ID":"2023-029H","EPOCH":"2025-10-19T14:48:17.117856","MEAN_MOTION":13.19724566,"ECCENTRICITY":0.00024327,"INCLINATION":87.9255,"RA_OF_ASC_NODE":352.8454,"ARG_OF_PERICENTER":126.1027,"MEAN_ANOMALY":234.0331,"EPHEMERIS_TYPE":0,"CLASSIFICATION_TYPE":"U","NORAD_CAT_ID":55803,"ELEMENT_SET_NO":999,"REV_AT_EPOCH":12717,"BSTAR":0.00016547559,"MEAN_MOTION_DOT":7.9e-7,"MEAN_MOTION_DDOT":0},{"OBJECT_NAME":"ONEWEB-0640","OBJECT_ID":"2023-029J","EPOCH":"2025-10-19T11:45:18.672480","MEAN_MOTION":13.14503994,"ECCENTRICITY":0.00012541,"INCLINATION":87.9031,"RA_OF_ASC_NODE":337.7043,"ARG_OF_PERICENTER":118.0858,"MEAN_ANOMALY":242.0398,"EPHEMERIS_TYPE":0,"CLASSIFICATION_TYPE":"U","NORAD_CAT_ID":55804,"ELEMENT_SET_NO":999,"REV_AT_EPOCH":12779,"BSTAR":0.00025182078,"MEAN_MOTION_DOT":1.06e-6,"MEAN_MOTION_DDOT":0},{"OBJECT_NAME":"ONEWEB-0641","OBJECT_ID":"2023-029K","EPOCH":"2025-10-19T14:41:27.812544","MEAN_MOTION":13.19725071,"ECCENTRICITY":0.00019733,"INCLINATION":87.9262,"RA_OF_ASC_NODE":352.822,"ARG_OF_PERICENTER":105.4319,"MEAN_ANOMALY":254.7032,"EPHEMERIS_TYPE":0,"CLASSIFICATION_TYPE":"U","NORAD_CAT_ID":55805,"ELEMENT_SET_NO":999,"REV_AT_EPOCH":12718,"BSTAR":0.00012065535,"MEAN_MOTION_DOT":6.1e-7,"MEAN_MOTION_DDOT":0},{"OBJECT_NAME":"ONEWEB-0642","OBJECT_ID":"2023-029L","EPOCH":"2025-10-19T21:51:20.632608","MEAN_MOTION":13.19723955,"ECCENTRICITY":0.00024923,"INCLINATION":87.9251,"RA_OF_ASC_NODE":352.7917,"ARG_OF_PERICENTER":116.7373,"MEAN_ANOMALY":243.4015,"EPHEMERIS_TYPE":0,"CLASSIFICATION_TYPE":"U","NORAD_CAT_ID":55806,"ELEMENT_SET_NO":999,"REV_AT_EPOCH":12721,"BSTAR":5.4527054e-5,"MEAN_MOTION_DOT":3.5e-7,"MEAN_MOTION_DDOT":0},{"OBJECT_NAME":"ONEWEB-0643","OBJECT_ID":"2023-029M","EPOCH":"2025-10-19T20:09:57.901536","MEAN_MOTION":13.14503164,"ECCENTRICITY":0.00025194,"INCLINATION":87.9037,"RA_OF_ASC_NODE":337.6189,"ARG_OF_PERICENTER":106.9983,"MEAN_ANOMALY":253.1423,"EPHEMERIS_TYPE":0,"CLASSIFICATION_TYPE":"U","NORAD_CAT_ID":55807,"ELEMENT_SET_NO":999,"REV_AT_EPOCH":12781,"BSTAR":-0.00038314761,"MEAN_MOTION_DOT":-1.29e-6,"MEAN_MOTION_DDOT":0},{"OBJECT_NAME":"ONEWEB-0644","OBJECT_ID":"2023-029N","EPOCH":"2025-10-19T21:44:30.669792","MEAN_MOTION":13.19723606,"ECCENTRICITY":0.00022156,"INCLINATION":87.9252,"RA_OF_ASC_NODE":352.8014,"ARG_OF_PERICENTER":110.7671,"MEAN_ANOMALY":249.3699,"EPHEMERIS_TYPE":0,"CLASSIFICATION_TYPE":"U","NORAD_CAT_ID":55808,"ELEMENT_SET_NO":999,"REV_AT_EPOCH":12721,"BSTAR":0.00017219647,"MEAN_MOTION_DOT":8.2e-7,"MEAN_MOTION_DDOT":0},{"OBJECT_NAME":"ONEWEB-0645","OBJECT_ID":"2023-029P","EPOCH":"2025-10-19T23:28:01.077600","MEAN_MOTION":13.19726418,"ECCENTRICITY":0.00018113,"INCLINATION":87.9249,"RA_OF_ASC_NODE":352.7707,"ARG_OF_PERICENTER":116.3233,"MEAN_ANOMALY":243.8086,"EPHEMERIS_TYPE":0,"CLASSIFICATION_TYPE":"U","NORAD_CAT_ID":55809,"ELEMENT_SET_NO":999,"REV_AT_EPOCH":12722,"BSTAR":0.00012176091,"MEAN_MOTION_DOT":6.2e-7,"MEAN_MOTION_DDOT":0},{"OBJECT_NAME":"ONEWEB-0646","OBJECT_ID":"2023-029Q","EPOCH":"2025-10-19T20:52:11.083872","MEAN_MOTION":13.1972781,"ECCENTRICITY":0.00021212,"INCLINATION":87.9257,"RA_OF_ASC_NODE":352.7924,"ARG_OF_PERICENTER":106.1817,"MEAN_ANOMALY":253.955,"EPHEMERIS_TYPE":0,"CLASSIFICATION_TYPE":"U","NORAD_CAT_ID":55810,"ELEMENT_SET_NO":999,"REV_AT_EPOCH":12719,"BSTAR":0.00026637786,"MEAN_MOTION_DOT":1.2e-6,"MEAN_MOTION_DDOT":0},{"OBJECT_NAME":"ONEWEB-0648","OBJECT_ID":"2023-029R","EPOCH":"2025-10-19T21:13:52.953024","MEAN_MOTION":13.14506061,"ECCENTRICITY":0.00021207,"INCLINATION":87.9021,"RA_OF_ASC_NODE":337.575,"ARG_OF_PERICENTER":126.065,"MEAN_ANOMALY":234.0677,"EPHEMERIS_TYPE":0,"CLASSIFICATION_TYPE":"U","NORAD_CAT_ID":55811,"ELEMENT_SET_NO":999,"REV_AT_EPOCH":12782,"BSTAR":0.00064851811,"MEAN_MOTION_DOT":2.53e-6,"MEAN_MOTION_DDOT":0},{"OBJECT_NAME":"ONEWEB-0649","OBJECT_ID":"2023-029S","EPOCH":"2025-10-19T21:28:36.071616","MEAN_MOTION":13.19723977,"ECCENTRICITY":0.0001985,"INCLINATION":87.9258,"RA_OF_ASC_NODE":352.7813,"ARG_OF_PERICENTER":113.1824,"MEAN_ANOMALY":246.9518,"EPHEMERIS_TYPE":0,"CLASSIFICATION_TYPE":"U","NORAD_CAT_ID":55812,"ELEMENT_SET_NO":999,"REV_AT_EPOCH":12723,"BSTAR":0.00020840583,"MEAN_MOTION_DOT":9.6e-7,"MEAN_MOTION_DDOT":0},{"OBJECT_NAME":"ONEWEB-0650","OBJECT_ID":"2023-029T","EPOCH":"2025-10-19T10:26:43.686240","MEAN_MOTION":13.19725623,"ECCENTRICITY":0.00019799,"INCLINATION":87.9256,"RA_OF_ASC_NODE":352.8816,"ARG_OF_PERICENTER":104.4105,"MEAN_ANOMALY":255.7248,"EPHEMERIS_TYPE":0,"CLASSIFICATION_TYPE":"U","NORAD_CAT_ID":55813,"ELEMENT_SET_NO":999,"REV_AT_EPOCH":12714,"BSTAR":0.00017707902,"MEAN_MOTION_DOT":8.4e-7,"MEAN_MOTION_DDOT":0},{"OBJECT_NAME":"ONEWEB-0652","OBJECT_ID":"2023-029U","EPOCH":"2025-10-19T20:46:30.472608","MEAN_MOTION":13.14502382,"ECCENTRICITY":0.00018543,"INCLINATION":87.9026,"RA_OF_ASC_NODE":337.5981,"ARG_OF_PERICENTER":92.2105,"MEAN_ANOMALY":267.9237,"EPHEMERIS_TYPE":0,"CLASSIFICATION_TYPE":"U","NORAD_CAT_ID":55814,"ELEMENT_SET_NO":999,"REV_AT_EPOCH":12779,"BSTAR":-2.7122135e-5,"MEAN_MOTION_DOT":3.0e-8,"MEAN_MOTION_DDOT":0},{"OBJECT_NAME":"ONEWEB-0653","OBJECT_ID":"2023-029V","EPOCH":"2025-10-19T20:23:39.516288","MEAN_MOTION":13.14500271,"ECCENTRICITY":0.00016519,"INCLINATION":87.903,"RA_OF_ASC_NODE":337.5914,"ARG_OF_PERICENTER":95.3309,"MEAN_ANOMALY":264.8009,"EPHEMERIS_TYPE":0,"CLASSIFICATION_TYPE":"U","NORAD_CAT_ID":55815,"ELEMENT_SET_NO":999,"REV_AT_EPOCH":12782,"BSTAR":-0.00043247903,"MEAN_MOTION_DOT":-1.48e-6,"MEAN_MOTION_DDOT":0},{"OBJECT_NAME":"ONEWEB-0654","OBJECT_ID":"2023-029W","EPOCH":"2025-10-19T20:16:48.997920","MEAN_MOTION":13.14502957,"ECCENTRICITY":0.00017258,"INCLINATION":87.9031,"RA_OF_ASC_NODE":337.5911,"ARG_OF_PERICENTER":85.9154,"MEAN_ANOMALY":274.2173,"EPHEMERIS_TYPE":0,"CLASSIFICATION_TYPE":"U","NORAD_CAT_ID":55816,"ELEMENT_SET_NO":999,"REV_AT_EPOCH":12784,"BSTAR":-0.00047513944,"MEAN_MOTION_DOT":-1.63e-6,"MEAN_MOTION_DDOT":0}]
